GSAT0210 (GALILEO 13)   
1 41550U 16030B   26086.51850330 -.00000012  00000+0  00000+0 0  9994
2 41550  55.1217 223.9368 0001813 210.8159 149.1228  1.70473922 61278
